O3B FM20                
1 44112U 19020A   26095.05203959 -.00000025  00000+0  00000+0 0  9995
2 44112   0.0530   0.9141 0002663   2.6728 356.4138  5.00115564127905
O3B FM19                
1 44113U 19020B   26095.07913541 -.00000026  00000+0  00000+0 0  9994
2 44113   0.0578 352.7385 0004290  10.0637 357.1990  5.00116062127780
O3B FM17                
1 44114U 19020C   26095.15921898 -.00000026  00000+0  00000+0 0  9998
2 44114   0.0359 348.5737 0002634  22.2983 349.1325  5.00115522127874
O3B FM18                
1 44115U 19020D   26095.10552281 -.00000025  00000+0  00000+0 0  9999
2 44115   0.0533   1.1009 0002731  13.5975 345.3083  5.00115331127984
SALSAT                  
1 46495U 20068K   26095.25293326  .00010667  00000+0  38421-3 0  9998
2 46495  97.8868  93.9405 0009584 187.7921 172.3170 15.28731219304217
O3B MPOWER F1           
1 54755U 22174A   26095.00433162 -.00000026  00000+0  00000+0 0  9990
2 54755   0.0622 348.9934 0005641  43.4576   5.1082  5.00114922 61695
O3B MPOWER F2           
1 54756U 22174B   26095.15002367 -.00000026  00000+0  00000+0 0  9996
2 54756   0.0593 346.1754 0005931  27.2945 346.5447  5.00115573 61796
O3B MPOWER F4           
1 56367U 23059A   26095.01447076 -.00000026  00000+0  00000+0 0  9994
2 56367   0.0643   4.4972 0007036  23.6746 331.8649  5.00116127 54941
O3B MPOWER F3           
1 56368U 23059B   26095.24765998 -.00000025  00000+0  00000+0 0  9995
2 56368   0.0654   4.4197 0006596  13.7817 341.8210  5.00116750 51070
O3B MPOWER F9           
1 64866U 25153A   26095.01597221 -.00000026  00000+0  00000+0 0  9992
2 64866   0.0511  14.8201 0005175  25.5245 319.6924  5.00116291 15900
O3B MPOWER F10          
1 64867U 25153B   26094.98182475 -.00000026  00000+0  00000+0 0  9999
2 64867   0.0518   9.9961 0003577 256.6258  93.3359  5.00115052 18377
