[{"OBJECT_NAME":"O3B FM20","OBJECT_ID":"2019-020A","EPOCH":"2026-04-05T01:14:56.220576","MEAN_MOTION":5.00115564,"ECCENTRICITY":0.0002663,"INCLINATION":0.053,"RA_OF_ASC_NODE":0.9141,"ARG_OF_PERICENTER":2.6728,"MEAN_ANOMALY":356.4138,"EPHEMERIS_TYPE":0,"CLASSIFICATION_TYPE":"U","NORAD_CAT_ID":44112,"ELEMENT_SET_NO":999,"REV_AT_EPOCH":12790,"BSTAR":0,"MEAN_MOTION_DOT":-2.5e-7,"MEAN_MOTION_DDOT":0},{"OBJECT_NAME":"O3B FM19","OBJECT_ID":"2019-020B","EPOCH":"2026-04-05T01:53:57.299424","MEAN_MOTION":5.00116062,"ECCENTRICITY":0.00042907,"INCLINATION":0.0578,"RA_OF_ASC_NODE":352.7385,"ARG_OF_PERICENTER":10.0637,"MEAN_ANOMALY":357.199,"EPHEMERIS_TYPE":0,"CLASSIFICATION_TYPE":"U","NORAD_CAT_ID":44113,"ELEMENT_SET_NO":999,"REV_AT_EPOCH":12778,"BSTAR":0,"MEAN_MOTION_DOT":-2.6e-7,"MEAN_MOTION_DDOT":0},{"OBJECT_NAME":"O3B FM17","OBJECT_ID":"2019-020C","EPOCH":"2026-04-05T03:49:16.519872","MEAN_MOTION":5.00115522,"ECCENTRICITY":0.00026341,"INCLINATION":0.0359,"RA_OF_ASC_NODE":348.5737,"ARG_OF_PERICENTER":22.2983,"MEAN_ANOMALY":349.1325,"EPHEMERIS_TYPE":0,"CLASSIFICATION_TYPE":"U","NORAD_CAT_ID":44114,"ELEMENT_SET_NO":999,"REV_AT_EPOCH":12787,"BSTAR":0,"MEAN_MOTION_DOT":-2.6e-7,"MEAN_MOTION_DDOT":0},{"OBJECT_NAME":"O3B FM18","OBJECT_ID":"2019-020D","EPOCH":"2026-04-05T02:31:57.170784","MEAN_MOTION":5.00115331,"ECCENTRICITY":0.00027316,"INCLINATION":0.0533,"RA_OF_ASC_NODE":1.1009,"ARG_OF_PERICENTER":13.5975,"MEAN_ANOMALY":345.3083,"EPHEMERIS_TYPE":0,"CLASSIFICATION_TYPE":"U","NORAD_CAT_ID":44115,"ELEMENT_SET_NO":999,"REV_AT_EPOCH":12798,"BSTAR":0,"MEAN_MOTION_DOT":-2.5e-7,"MEAN_MOTION_DDOT":0},{"OBJECT_NAME":"SALSAT","OBJECT_ID":"2020-068K","EPOCH":"2026-04-05T06:04:13.433664","MEAN_MOTION":15.28731219,"ECCENTRICITY":0.00095847,"INCLINATION":97.8868,"RA_OF_ASC_NODE":93.9405,"ARG_OF_PERICENTER":187.7921,"MEAN_ANOMALY":172.317,"EPHEMERIS_TYPE":0,"CLASSIFICATION_TYPE":"U","NORAD_CAT_ID":46495,"ELEMENT_SET_NO":999,"REV_AT_EPOCH":30421,"BSTAR":0.00038420903,"MEAN_MOTION_DOT":0.00010667,"MEAN_MOTION_DDOT":0},{"OBJECT_NAME":"O3B MPOWER F1","OBJECT_ID":"2022-174A","EPOCH":"2026-04-05T00:06:14.251968","MEAN_MOTION":5.00114922,"ECCENTRICITY":0.00056413,"INCLINATION":0.0622,"RA_OF_ASC_NODE":348.9934,"ARG_OF_PERICENTER":43.4576,"MEAN_ANOMALY":5.1082,"EPHEMERIS_TYPE":0,"CLASSIFICATION_TYPE":"U","NORAD_CAT_ID":54755,"ELEMENT_SET_NO":999,"REV_AT_EPOCH":6169,"BSTAR":0,"MEAN_MOTION_DOT":-2.6e-7,"MEAN_MOTION_DDOT":0},{"OBJECT_NAME":"O3B MPOWER F2","OBJECT_ID":"2022-174B","EPOCH":"2026-04-05T03:36:02.045088","MEAN_MOTION":5.00115573,"ECCENTRICITY":0.00059315,"INCLINATION":0.0593,"RA_OF_ASC_NODE":346.1754,"ARG_OF_PERICENTER":27.2945,"MEAN_ANOMALY":346.5447,"EPHEMERIS_TYPE":0,"CLASSIFICATION_TYPE":"U","NORAD_CAT_ID":54756,"ELEMENT_SET_NO":999,"REV_AT_EPOCH":6179,"BSTAR":0,"MEAN_MOTION_DOT":-2.6e-7,"MEAN_MOTION_DDOT":0},{"OBJECT_NAME":"O3B MPOWER F4","OBJECT_ID":"2023-059A","EPOCH":"2026-04-05T00:20:50.273664","MEAN_MOTION":5.00116127,"ECCENTRICITY":0.00070364,"INCLINATION":0.0643,"RA_OF_ASC_NODE":4.4972,"ARG_OF_PERICENTER":23.6746,"MEAN_ANOMALY":331.8649,"EPHEMERIS_TYPE":0,"CLASSIFICATION_TYPE":"U","NORAD_CAT_ID":56367,"ELEMENT_SET_NO":999,"REV_AT_EPOCH":5494,"BSTAR":0,"MEAN_MOTION_DOT":-2.6e-7,"MEAN_MOTION_DDOT":0},{"OBJECT_NAME":"O3B MPOWER F3","OBJECT_ID":"2023-059B","EPOCH":"2026-04-05T05:56:37.822272","MEAN_MOTION":5.0011675,"ECCENTRICITY":0.00065966,"INCLINATION":0.0654,"RA_OF_ASC_NODE":4.4197,"ARG_OF_PERICENTER":13.7817,"MEAN_ANOMALY":341.821,"EPHEMERIS_TYPE":0,"CLASSIFICATION_TYPE":"U","NORAD_CAT_ID":56368,"ELEMENT_SET_NO":999,"REV_AT_EPOCH":5107,"BSTAR":0,"MEAN_MOTION_DOT":-2.5e-7,"MEAN_MOTION_DDOT":0},{"OBJECT_NAME":"O3B MPOWER F9","OBJECT_ID":"2025-153A","EPOCH":"2026-04-05T00:22:59.998944","MEAN_MOTION":5.00116291,"ECCENTRICITY":0.00051755,"INCLINATION":0.0511,"RA_OF_ASC_NODE":14.8201,"ARG_OF_PERICENTER":25.5245,"MEAN_ANOMALY":319.6924,"EPHEMERIS_TYPE":0,"CLASSIFICATION_TYPE":"U","NORAD_CAT_ID":64866,"ELEMENT_SET_NO":999,"REV_AT_EPOCH":1590,"BSTAR":0,"MEAN_MOTION_DOT":-2.6e-7,"MEAN_MOTION_DDOT":0},{"OBJECT_NAME":"O3B MPOWER F10","OBJECT_ID":"2025-153B","EPOCH":"2026-04-04T23:33:49.658400","MEAN_MOTION":5.00115052,"ECCENTRICITY":0.00035772,"INCLINATION":0.0518,"RA_OF_ASC_NODE":9.9961,"ARG_OF_PERICENTER":256.6258,"MEAN_ANOMALY":93.3359,"EPHEMERIS_TYPE":0,"CLASSIFICATION_TYPE":"U","NORAD_CAT_ID":64867,"ELEMENT_SET_NO":999,"REV_AT_EPOCH":1837,"BSTAR":0,"MEAN_MOTION_DOT":-2.6e-7,"MEAN_MOTION_DDOT":0}]
